0 DELTA 1 R/B(1)
1 10856U 78044B   13281.54013251  .00000080  00000-0  11052-2 0  1495
2 10856 027.9478 342.1396 1094230 235.2730 276.5352 10.29732058333442
0 DELTA 1 R/B(1)
1 10856U 78044B   13285.61444416  .00000074  00000-0  92477-3 0  1504
2 10856 027.9475 330.7877 1094352 253.9163 260.1535 10.29732246333865
0 DELTA 1 R/B(1)
1 10856U 78044B   13290.46403329  .00000065  00000-0  66347-3 0  1519
2 10856 027.9448 317.2740 1094409 276.1153 237.7516 10.29732271334366
0 DELTA 1 R/B(1)
1 10856U 78044B   13294.54668285  .00000070  00000-0  89828-3 0  1522
2 10856 027.9431 305.8959 1094398 294.8030 252.2826 10.29732586334782
